{
  "type": "FeatureCollection",
  "name": "chicago_dc_aoi",
  "crs": {
    "type": "name",
    "properties": {
      "name": "urn:ogc:def:crs:OGC:1.3:CRS84"
    }
  },
  "features": [
    {
      "type": "Feature",
      "properties": {
        "name": "Chicago data-center cluster",
        "buffer_m": 10000.0,
        "clip_crs": "EPSG:32616",
        "area_km2": 5091.071,
        "n_points": 113,
        "method": "utm16n_shapely",
        "n_dropped_null": 20
      },
      "geometry": {
        "type": "Polygon",
        "coordinates": [
          [
            [
              -87.4925375296024,
              41.58068966687539
            ],
            [
              -87.49476928317087,
              41.572156960441184
            ],
            [
              -87.49808563068508,
              41.56382552812439
            ],
            [
              -87.50245528675424,
              41.55577293335202
            ],
            [
              -87.50783720253266,
              41.548074115500654
            ],
            [
              -87.51418096016695,
              41.540800695698394
            ],
            [
              -87.52142725211401,
              41.534020314318006
            ],
            [
              -87.52950844052238,
              41.527796006148606
            ],
            [
              -87.53834919122832,
              41.52218561886139
            ],
            [
              -87.54786717633286,
              41.51724127996916
            ],
            [
              -87.55797383880342,
              41.51300891702276
            ],
            [
              -87.56857521208028,
              41.50952783529481
            ],
            [
              -87.57957278726622,
              41.50683035667714
            ],
            [
              -87.59086442013711,
              41.50494152296675
            ],
            [
              -87.60234526993042,
              41.50387886614037
            ],
            [
              -87.61390876164806,
              41.503652247625865
            ],
            [
              -87.62544756344917,
              41.504263767970855
            ],
            [
              -87.63685457060603,
              41.50570774769372
            ],
            [
              -87.64802388745298,
              41.50797077947919
            ],
            [
              -87.65885179877269,
              41.511031851259204
            ],
            [
              -88.29061752417763,
              41.71388341470585
            ],
            [
              -88.30515131797695,
              41.71939170921674
            ],
            [
              -88.32729659444082,
              41.729244128704465
            ],
            [
              -88.33690192138907,
              41.73399521931682
            ],
            [
              -88.34585814939831,
              41.739411860027936
            ],
            [
              -88.35408328403236,
              41.7454445577226
            ],
            [
              -88.36150194913355,
              41.75203817719878
            ],
            [
              -88.36804607699426,
              41.75913244064056
            ],
            [
              -88.37365553458541,
              41.7666624742564
            ],
            [
              -88.37827868002579,
              41.774559397285536
            ],
            [
              -88.38187284400843,
              41.782750948179405
            ],
            [
              -88.38440473148614,
              41.791162142408595
            ],
            [
              -88.3858507395571,
              41.79971595603412
            ],
            [
              -88.38619718818079,
              41.80833402891677
            ],
            [
              -88.38544046108984,
              41.81693738122513
            ],
            [
              -88.34358936286387,
              42.09026573201913
            ],
            [
              -88.3413867913154,
              42.099915455398104
            ],
            [
              -88.3377900851318,
              42.10933003736478
            ],
            [
              -88.33284117307605,
              42.118398128683395
            ],
            [
              -88.16301369385052,
              42.3854803112808
            ],
            [
              -88.1572783478752,
              42.39340752547734
            ],
            [
              -88.15050316806249,
              42.400870656757945
            ],
            [
              -88.14275555732796,
              42.4077950604871
            ],
            [
              -88.13411272071329,
              42.41411145572856
            ],
            [
              -88.12466089929883,
              42.41975662398461
            ],
            [
              -88.11449450982136,
              42.42467404763773
            ],
            [
              -88.10371519856476,
              42.4288144814174
            ],
            [
              -88.0924308191166,
              42.432136450885935
            ],
            [
              -88.0807543445053,
              42.43460667268176
            ],
            [
              -88.06880272503857,
              42.43620039206713
            ],
            [
              -88.05669570383748,
              42.43690163419079
            ],
            [
              -88.04455460259027,
              42.43670336638582
            ],
            [
              -88.03250109042622,
              42.43560756976481
            ],
            [
              -88.02065594902464,
              42.433625219340435
            ],
            [
              -88.00913784712408,
              42.4307761728745
            ],
            [
              -87.99806213748026,
              42.427088969631555
            ],
            [
              -87.98753968904107,
              42.422600541171796
            ],
            [
              -87.97767576666769,
              42.41735583724962
            ],
            [
              -87.96856897014086,
              42.4114073707782
            ],
            [
              -87.96031024346219,
              42.40481468666466
            ],
            [
              -87.95298196460305,
              42.39764376010646
            ],
            [
              -87.54349684996937,
              41.9483491848336
            ],
            [
              -87.5428358164243,
              41.94760961519915
            ],
            [
              -87.53220253906343,
              41.93558193031008
            ],
            [
              -87.52627776158201,
              41.92811911422992
            ],
            [
              -87.52134331418804,
              41.92026500794468
            ],
            [
              -87.46359057814063,
              41.8152894516069
            ],
            [
              -87.45933685082565,
              41.806183060705
            ],
            [
              -87.4564102511478,
              41.796788436451834
            ],
            [
              -87.45484379646126,
              41.787213446618864
            ],
            [
              -87.45465485643633,
              41.777567982123955
            ],
            [
              -87.45584498128805,
              41.76796269391064
            ],
            [
              -87.4925375296024,
              41.58068966687539
            ]
          ]
        ]
      }
    }
  ]
}
